NORAD_CAT_ID,OBJECT_NAME,OBJECT_TYPE,EPOCH,MEAN_MOTION,ECCENTRICITY,INCLINATION,RA_OF_ASC_NODE,ARG_OF_PERICENTER,MEAN_ANOMALY,BSTAR,MEAN_MOTION_DOT,MEAN_MOTION_DDOT,TLE_LINE0,TLE_LINE1,TLE_LINE2,SEMIMAJOR_AXIS,PERIOD,APOGEE,PERIGEE,DECAYED
56769.0,STARLINK-5978,PAYLOAD,2024-03-06 04:11:59,14.98330957,0.0002936,69.9995,53.9094,268.251,91.8312,-1.6528e-05,-2.9e-06,0.0,0 STARLINK-5978,1 56769U 23078C   24066.17499554 -.00000290  00000-0 -16528-4 0  9994,2 56769  69.9995  53.9094 0002936 268.2510  91.8312 14.98330957 42577,6950.19,96.107,574.096,570.014,0.0
56769.0,STARLINK-5978,PAYLOAD,2024-03-06 09:00:23,14.98330056,0.0002929,69.9996,53.4045,268.4741,91.6082,-2.3403e-05,-3.72e-06,0.0,0 STARLINK-5978,1 56769U 23078C   24066.37527626 -.00000372  00000-0 -23403-4 0  9999,2 56769  69.9996  53.4045 0002929 268.4741  91.6082 14.98330056 42346,6950.193,96.107,574.093,570.022,0.0
56769.0,STARLINK-5978,PAYLOAD,2024-03-07 04:14:00,14.98333361,0.0002885,69.9999,51.3833,269.9198,90.163,6.1858e-05,6.45e-06,0.0,0 STARLINK-5978,1 56769U 23078C   24067.17639041  .00000645  00000-0  61858-4 0  9990,2 56769  69.9999  51.3833 0002885 269.9198  90.1630 14.98333361 42721,6950.182,96.107,574.053,570.042,0.0
56769.0,STARLINK-5978,PAYLOAD,2024-03-07 09:02:24,14.98333288,0.0002899,69.9998,50.88,268.2345,91.8482,5.272e-05,5.36e-06,0.0,0 STARLINK-5978,1 56769U 23078C   24067.37667092  .00000536  00000-0  52720-4 0  9996,2 56769  69.9998  50.8800 0002899 268.2345  91.8482 14.98333288 42494,6950.183,96.107,574.063,570.033,0.0
56769.0,STARLINK-5978,PAYLOAD,2024-03-08 04:16:01,14.98330159,0.0002697,70.0003,48.861,265.4795,94.6056,1.5512e-05,9.2e-07,0.0,0 STARLINK-5978,1 56769U 23078C   24068.17779342  .00000092  00000-0  15512-4 0  9992,2 56769  70.0003  48.8610 0002697 265.4795  94.6056 14.98330159 42878,6950.192,96.107,573.932,570.183,0.0
56769.0,STARLINK-5978,PAYLOAD,2024-03-08 09:04:25,14.98327897,0.0002755,70.0002,48.3554,267.8982,92.1862,2.463e-06,-6.4e-07,0.0,0 STARLINK-5978,1 56769U 23078C   24068.37807543 -.00000064  00000-0  24630-5 0  9991,2 56769  70.0002  48.3554 0002755 267.8982  92.1862 14.98327897 42646,6950.199,96.107,573.979,570.15,0.0
56769.0,STARLINK-5978,PAYLOAD,2024-03-09 04:18:02,14.98340463,0.0002611,70.0,46.3352,268.0203,92.0657,-0.00020027,-2.482e-05,0.0,0 STARLINK-5978,1 56769U 23078C   24069.17919263 -.00002482  00000-0 -20027-3 0  9994,2 56769  70.0000  46.3352 0002611 268.0203  92.0657 14.98340463 43026,6950.161,96.106,573.84,570.211,0.0
56769.0,STARLINK-5978,PAYLOAD,2024-03-09 09:06:26,14.98330127,0.000281,70.0001,45.8298,265.4369,94.6469,-2.5529e-05,-3.98e-06,0.0,0 STARLINK-5978,1 56769U 23078C   24069.37947411 -.00000398  00000-0 -25529-4 0  9999,2 56769  70.0001  45.8298 0002810 265.4369  94.6469 14.98330127 42793,6950.192,96.107,574.011,570.104,0.0
56769.0,STARLINK-5978,PAYLOAD,2024-03-10 07:32:19,14.98331488,0.0002907,70.0,43.4732,268.8138,91.2688,5.1226e-05,5.18e-06,0.0,0 STARLINK-5978,1 56769U 23078C   24070.31411056  .00000518  00000-0  51226-4 0  9991,2 56769  70.0000  43.4732 0002907 268.8138  91.2688 14.98331488 42930,6950.188,96.107,574.074,570.033,0.0
56769.0,STARLINK-5978,PAYLOAD,2024-03-10 15:32:59,14.98326992,0.0002793,70.0006,42.6306,264.5312,95.5529,2.5393e-05,2.1e-06,0.0,0 STARLINK-5978,1 56769U 23078C   24070.64791463  .00000210  00000-0  25393-4 0  9995,2 56769  70.0006  42.6306 0002793 264.5312  95.5529 14.98326992 43244,6950.202,96.107,574.008,570.126,0.0
56769.0,STARLINK-5978,PAYLOAD,2024-03-11 07:34:20,14.98342482,0.0003008,70.0,40.948,269.3196,90.7619,-0.00025821,-3.174e-05,0.0,0 STARLINK-5978,1 56769U 23078C   24071.31551237 -.00003174  00000-0 -25821-3 0  9992,2 56769  70.0000  40.9480 0003008 269.3196  90.7619 14.98342482 43345,6950.154,96.106,574.11,569.929,0.0
56769.0,STARLINK-5978,PAYLOAD,2024-03-11 15:35:00,14.9832925,0.0002905,70.0003,40.1059,269.4071,90.6755,7.4202e-06,-4e-08,0.0,0 STARLINK-5978,1 56769U 23078C   24071.64931433 -.00000004  00000-0  74202-5 0  9995,2 56769  70.0003  40.1059 0002905 269.4071  90.6755 14.98329250 43393,6950.195,96.107,574.079,570.041,0.0
56769.0,STARLINK-5978,PAYLOAD,2024-03-12 15:37:01,14.98330589,0.0002909,70.0003,37.5808,267.5465,92.536,2.9267e-05,2.56e-06,0.0,0 STARLINK-5978,1 56769U 23078C   24072.65071207  .00000256  00000-0  29267-4 0  9999,2 56769  70.0003  37.5808 0002909 267.5465  92.5360 14.98330589 43542,6950.191,96.107,574.078,570.034,0.0
56769.0,STARLINK-5978,PAYLOAD,2024-03-13 07:38:22,14.98328366,0.0002893,70.0002,35.8974,267.2593,92.8235,3.4732e-05,3.21e-06,0.0,0 STARLINK-5978,1 56769U 23078C   24073.31831324  .00000321  00000-0  34732-4 0  9993,2 56769  70.0002  35.8974 0002893 267.2593  92.8235 14.98328366 43383,6950.198,96.107,574.074,570.052,0.0
56769.0,STARLINK-5978,PAYLOAD,2024-03-13 20:27:28,14.98314969,0.0002427,70.0021,34.5532,263.4493,96.6389,-0.00014304,-1.798e-05,0.0,0 STARLINK-5978,1 56769U 23078C   24073.85241132 -.00001798  00000-0 -14304-3 0  9997,2 56769  70.0021  34.5532 0002427 263.4493  96.6389 14.98314969 43724,6950.239,96.108,573.791,570.418,0.0
56769.0,STARLINK-5978,PAYLOAD,2024-03-13 22:03:36,14.98310772,0.0002689,70.0033,34.3827,256.8512,103.2348,-0.000174,-2.167e-05,0.0,0 STARLINK-5978,1 56769U 23078C   24073.91917501 -.00002167  00000-0 -17400-3 0  9995,2 56769  70.0033  34.3827 0002689 256.8512 103.2348 14.98310772 43470,6950.252,96.108,573.986,570.248,0.0
56769.0,STARLINK-5978,PAYLOAD,2024-03-14 06:04:17,14.98315397,0.0002345,70.0023,33.5432,263.0978,96.9915,-0.00012299,-1.559e-05,0.0,0 STARLINK-5978,1 56769U 23078C   24074.25297567 -.00001559  00000-0 -12299-3 0  9991,2 56769  70.0023  33.5432 0002345 263.0978  96.9915 14.98315397 43529,6950.238,96.108,573.733,570.473,0.0
56769.0,STARLINK-5978,PAYLOAD,2024-03-14 07:40:24,14.98318955,0.0002779,70.0007,33.3733,270.2993,89.7847,-7.9082e-05,-1.036e-05,0.0,0 STARLINK-5978,1 56769U 23078C   24074.31973148 -.00001036  00000-0 -79082-4 0  9998,2 56769  70.0007  33.3733 0002779 270.2993  89.7847 14.98318955 43797,6950.227,96.108,574.024,570.161,0.0
56769.0,STARLINK-5978,PAYLOAD,2024-03-14 22:05:37,14.98321858,0.0003416,69.9995,31.8598,274.4077,85.6692,6.7359e-05,7.11e-06,0.0,0 STARLINK-5978,1 56769U 23078C   24074.92056737  .00000711  00000-0  67359-4 0  9992,2 56769  69.9995  31.8598 0003416 274.4077  85.6692 14.98321858 43621,6950.218,96.108,574.457,569.709,0.0
56769.0,STARLINK-5978,PAYLOAD,2024-03-15 04:30:08,14.98331186,0.0003069,70.0001,31.1837,276.0464,84.0346,5.3417e-05,5.44e-06,0.0,0 STARLINK-5978,1 56769U 23078C   24075.18760294  .00000544  00000-0  53417-4 0  9995,2 56769  70.0001  31.1837 0003069 276.0464  84.0346 14.98331186 43920,6950.189,96.107,574.187,569.921,0.0
56769.0,STARLINK-5978,PAYLOAD,2024-03-15 22:07:37,14.98314906,0.0002964,70.0003,29.3345,273.5731,86.5089,0.00041142,4.817e-05,0.0,0 STARLINK-5978,1 56769U 23078C   24075.92196481  .00004817  00000-0  41142-3 0  9996,2 56769  70.0003  29.3345 0002964 273.5731  86.5089 14.98314906 43772,6950.24,96.108,574.165,570.045,0.0
56769.0,STARLINK-5978,PAYLOAD,2024-03-16 04:32:09,14.98327408,0.0002981,70.0005,28.6597,269.2153,90.8665,0.00030549,3.554e-05,0.0,0 STARLINK-5978,1 56769U 23078C   24076.18900097  .00003554  00000-0  30549-3 0  9997,2 56769  70.0005  28.6597 0002981 269.2153  90.8665 14.98327408 44077,6950.201,96.107,574.138,569.994,0.0
56769.0,STARLINK-5978,PAYLOAD,2024-03-16 06:08:17,14.98340094,0.0002651,70.0006,28.4921,264.723,95.3627,8.9356e-05,9.74e-06,0.0,0 STARLINK-5978,1 56769U 23078C   24076.25575786  .00000974  00000-0  89356-4 0  9992,2 56769  70.0006  28.4921 0002651 264.7230  95.3627 14.98340094 44082,6950.162,96.106,573.869,570.184,0.0
56769.0,STARLINK-5978,PAYLOAD,2024-03-16 22:09:38,14.98338977,0.000286,70.0008,26.8088,270.8651,89.218,4.6257e-05,4.59e-06,0.0,0 STARLINK-5978,1 56769U 23078C   24076.92335802  .00000459  00000-0  46257-4 0  9990,2 56769  70.0008  26.8088 0002860 270.8651  89.2180 14.98338977 43922,6950.165,96.106,574.018,570.042,0.0
56769.0,STARLINK-5978,PAYLOAD,2024-03-17 06:10:18,14.98341032,0.0002828,70.001,25.9671,271.0203,89.0632,6.7355e-05,7.11e-06,0.0,0 STARLINK-5978,1 56769U 23078C   24077.25715384  .00000711  00000-0  67355-4 0  9997,2 56769  70.0010  25.9671 0002828 271.0203  89.0632 14.98341032 44234,6950.159,96.106,573.989,570.058,0.0
56769.0,STARLINK-5978,PAYLOAD,2024-03-17 22:11:38,14.98340058,0.0002773,70.0012,24.2839,271.6841,88.4,-1.588e-05,-2.82e-06,0.0,0 STARLINK-5978,1 56769U 23078C   24077.92475203 -.00000282  00000-0 -15880-4 0  9995,2 56769  70.0012  24.2839 0002773 271.6841  88.4000 14.98340058 44078,6950.162,96.106,573.954,570.1,0.0
56769.0,STARLINK-5978,PAYLOAD,2024-03-18 06:12:18,14.98339769,0.0002783,70.0014,23.4422,271.7015,88.3825,-1.8254e-05,-3.11e-06,0.0,0 STARLINK-5978,1 56769U 23078C   24078.25854994 -.00000311  00000-0 -18254-4 0  9991,2 56769  70.0014  23.4422 0002783 271.7015  88.3825 14.98339769 44389,6950.163,96.106,573.962,570.093,0.0
56769.0,STARLINK-5978,PAYLOAD,2024-03-18 22:13:39,14.98335566,0.0002659,70.0018,21.7597,267.3197,92.7658,-4.421e-05,-6.2e-06,0.0,0 STARLINK-5978,1 56769U 23078C   24078.92614985 -.00000620  00000-0 -44210-4 0  9993,2 56769  70.0018  21.7597 0002659 267.3197  92.7658 14.98335566 44228,6950.176,96.107,573.889,570.193,0.0
56769.0,STARLINK-5978,PAYLOAD,2024-03-19 06:14:19,14.98335002,0.0002694,70.0018,20.918,268.7357,91.3493,-4.5972e-05,-6.41e-06,0.0,0 STARLINK-5978,1 56769U 23078C   24079.25994937 -.00000641  00000-0 -45972-4 0  9997,2 56769  70.0018  20.9180 0002694 268.7357  91.3493 14.98335002 44271,6950.177,96.107,573.915,570.17,0.0
56769.0,STARLINK-5978,PAYLOAD,2024-03-19 22:15:39,14.98336061,0.0002746,70.0018,19.2347,269.4906,90.5938,2.0512e-05,1.52e-06,0.0,0 STARLINK-5978,1 56769U 23078C   24079.92754427  .00000152  00000-0  20512-4 0  9997,2 56769  70.0018  19.2347 0002746 269.4906  90.5938 14.98336061 44634,6950.174,96.107,573.948,570.131,0.0
